EXCITE                  
1 43819U 18099BP  26068.69809098  .00002813  00000+0  19631-3 0  9999
2 43819  97.4107 111.3606 0017626 337.4818  22.5634 15.06036758396774
STARLINK-4104           
1 53163U 22083AH  26068.57258538 -.00002579  00000+0 -14407-3 0  9991
2 53163  53.2164 164.7936 0000991  89.2621 270.8484 15.08823667201343
